PERSEUS-M1              
1 40039U 14033AF  26136.59076436  .00001503  00000+0  14092-3 0  9992
2 40039  97.9633  80.2103 0012784  48.1314 312.0994 14.95518502645915
POLYITAN-1              
1 40042U 14033AJ  26136.77954166  .00015489  00000+0  50182-3 0  9999
2 40042  98.0960 160.0968 0005539 248.8269 111.2379 15.32106761648784
TIGRISAT                
1 40043U 14033AK  26136.85267451  .00001347  00000+0  16080-3 0  9990
2 40043  97.7796 287.5928 0049613 175.8470 184.3167 14.85017607640979
AEROCUBE 6A             
1 40045U 14033AM  26136.89439242  .00004573  00000+0  38854-3 0  9992
2 40045  97.7220 304.1900 0040230 119.1165 241.4094 14.97741747641930
AEROCUBE 6B             
1 40046U 14033AN  26136.92691921  .00004760  00000+0  39017-3 0  9991
2 40046  97.7170 303.9481 0038332 112.4261 248.1030 14.99160950642072
CANX-4                  
1 40055U 14034C   26136.74020309  .00000585  00000+0  82402-4 0  9996
2 40055  98.3163  10.8937 0014043 110.0844 250.1881 14.81202045639879
CANX-5                  
1 40056U 14034D   26136.87410483  .00000573  00000+0  80821-4 0  9997
2 40056  98.3165  11.0742 0014045 109.8709 250.4017 14.81219152630701
UKUBE-1                 
1 40074U 14037F   26136.95833206  .00005991  00000+0  34361-3 0  9997
2 40074  98.4237 136.9642 0000296 112.9011 247.2248 15.13011726643833
BRITE-PL2 (HEWELIUSZ)   
1 40119U 14049B   26136.77182169  .00001108  00000+0  10814-3 0  9998
2 40119  97.9062 248.5388 0013456 208.8593 151.1884 14.94464804636751
AEROCUBE 5C             
1 40965U 15058B   26136.65402519  .00002220  00000+0  20460-3 0  9993
2 40965  64.7685   0.6754 0129874  75.6672 285.8819 14.91263749360958
AEROCUBE 7              
1 40966U 15058C   26136.60600014  .00003281  00000+0  27028-3 0  9994
2 40966  64.7628 343.7167 0119653  74.3672 287.0608 14.95467313361234
FOX-1A (AO-85)          
1 40967U 15058D   26136.69130714  .00002304  00000+0  21481-3 0  9991
2 40967  64.7768  16.8492 0129118  68.9461 292.5402 14.90772442108870
SINOD-D 1               
1 40968U 15058E   26136.92204304  .00003179  00000+0  26236-3 0  9999
2 40968  64.7762 356.8045 0117636  65.6323 295.7017 14.95647045111987
SNAP-3 ALICE            
1 40970U 15058G   26136.82125714  .00058808  00000+0  88600-3 0  9990
2 40970  64.7529 211.7806 0033170  28.2061 332.0869 15.53807330112003
LMRST-SAT               
1 40971U 15058H   26136.63865990  .00002319  00000+0  21727-3 0  9990
2 40971  64.7774  13.2916 0130896  70.9923 290.5317 14.90397863108856
SNAP-3 EDDIE            
1 40972U 15058J   26136.89956789  .00065271  00000+0  94009-3 0  9995
2 40972  64.7445 202.4619 0033538  31.8783 328.4380 15.54980787114154
PROPCUBE 3              
1 40973U 15058K   26136.61744396  .00002794  00000+0  23953-3 0  9996
2 40973  64.7692 351.1555 0123036  72.4933 288.9582 14.94030179110087
BISONSAT                
1 40974U 15058L   26136.82752742  .00009298  00000+0  46125-3 0  9996
2 40974  64.7599 274.9735 0078700  60.6207 300.2746 15.15522919110864
SNAP-3 JIMI             
1 40975U 15058M   26136.89843037  .00004672  00000+0  32845-3 0  9997
2 40975  64.7650 318.7426 0105060  68.3488 292.8779 15.01961463109522
PROPCUBE 1 (FLORA)      
1 40976U 15058N   26136.96754303  .00002084  00000+0  20451-3 0  9998
2 40976  64.7762  31.9803 0129704  73.1461 288.3828 14.89031298111613
SINOD-D 3               
1 40977U 15058P   26136.64371464  .00003061  00000+0  26575-3 0  9996
2 40977  64.7738  14.3013 0118163  70.7372 290.6479 14.93759866110043
HORYU-4                 
1 41340U 16012D   26136.85064051  .00166597  00000+0  87779-3 0  9993
2 41340  30.9885 305.8839 0004970  58.9439 301.1705 15.79065819565836
RAVAN                   
1 41849U 16067B   26136.60186740  .00041771  00000+0  70185-3 0  9999
2 41849  97.9939  22.6019 0007209 110.4767 249.7258 15.51633919522793
CELTEE 1                
1 41850U 16067C   26136.59814610  .00003790  00000+0  18302-3 0  9995
2 41850  98.0712   1.0129 0001598  56.1474 303.9911 15.19349073521084
OPTICUBE 04             
1 41851U 16067D   26136.52765175  .00001621  00000+0  10534-3 0  9990
2 41851  98.0730 347.1576 0014670 220.8677 139.1451 15.09515933520395
AEROCUBE 8D             
1 41852U 16067E   26136.90548390  .00005883  00000+0  24673-3 0  9994
2 41852  98.0721   4.7028 0002172 223.2970 136.8095 15.23928644521304
AEROCUBE 8C             
1 41853U 16067F   26136.86981342  .00005679  00000+0  23657-3 0  9992
2 41853  98.0592   1.9329 0005846 154.6079 205.5445 15.24166545521298
CORVUS BC2              
1 42846U 17042X   26136.90399463  .00001977  00000+0  13924-3 0  9994
2 42846  97.4038 299.4812 0012165 212.2828 147.7656 15.06081542482352
CORVUS BC1              
1 42847U 17042Y   26136.90215854  .00001844  00000+0  12959-3 0  9996
2 42847  97.4068 300.2730 0011702 187.2002 172.9059 15.06252371482387
MAKERSAT 0              
1 43016U 17073D   26136.94743650  .00021752  00000+0  60645-3 0  9998
2 43016  97.4673  19.2487 0111034  25.2140 335.4462 15.30711347461681
